{
  "type": "FeatureCollection",
  "features": [
    {
      "type": "Feature",
      "properties": {
        "norad_id": 35883,
        "name": "COSMOS 2251 DEB",
        "group": "cosmos-2251-debris",
        "lat": -12.621173149019032,
        "lon": 84.12629732762987,
        "alt_km": 764.4121059982062,
        "timestamp": "2025-12-03T06:58:43.638857+00:00",
        "meta_object_name": "COSMOS 2251 DEB",
        "meta_object_id": "1993-036ATW",
        "meta_epoch": "2025-11-29T02:53:29.744160",
        "meta_mean_motion": 14.50541303,
        "meta_eccentricity": 0.00841977,
        "meta_inclination": 74.0237,
        "meta_ra_of_asc_node": 95.6459,
        "meta_arg_of_pericenter": 227.8885,
        "meta_mean_anomaly": 309.997,
        "meta_ephemeris_type": 0,
        "meta_classification_type": "U",
        "meta_norad_cat_id": 35883,
        "meta_element_set_no": 999,
        "meta_rev_at_epoch": 62188,
        "meta_bstar": 0.00041574036,
        "meta_mean_motion_dot": 1.674e-05,
        "meta_mean_motion_ddot": 0,
        "tle_line1": "1 35883U 93036ATW 25333.12048315  .00001674  00000+0  41574-3 0  9999",
        "tle_line2": "2 35883  74.0237  95.6459 0084197 227.8885 309.9970 14.50541303621887"
      },
      "geometry": {
        "type": "Point",
        "coordinates": [
          84.12629732762987,
          -12.621173149019032
        ]
      }
    },
    {
      "type": "Feature",
      "properties": {
        "norad_id": 35884,
        "name": "COSMOS 2251 DEB",
        "group": "cosmos-2251-debris",
        "lat": -15.886208444711139,
        "lon": 177.8043481354478,
        "alt_km": 764.0430227909919,
        "timestamp": "2025-12-03T06:58:43.638867+00:00",
        "meta_object_name": "COSMOS 2251 DEB",
        "meta_object_id": "1993-036ATX",
        "meta_epoch": "2025-12-01T08:35:40.210656",
        "meta_mean_motion": 14.25555603,
        "meta_eccentricity": 0.01094526,
        "meta_inclination": 73.9914,
        "meta_ra_of_asc_node": 356.6148,
        "meta_arg_of_pericenter": 146.5236,
        "meta_mean_anomaly": 214.2894,
        "meta_ephemeris_type": 0,
        "meta_classification_type": "U",
        "meta_norad_cat_id": 35884,
        "meta_element_set_no": 999,
        "meta_rev_at_epoch": 22195,
        "meta_bstar": 0.0012758145,
        "meta_mean_motion_dot": 3.19e-05,
        "meta_mean_motion_ddot": 0,
        "tle_line1": "1 35884U 93036ATX 25335.35810429  .00003190  00000+0  12758-2 0  9996",
        "tle_line2": "2 35884  73.9914 356.6148 0109452 146.5236 214.2894 14.25555603221959"
      },
      "geometry": {
        "type": "Point",
        "coordinates": [
          177.8043481354478,
          -15.886208444711139
        ]
      }
    },
    {
      "type": "Feature",
      "properties": {
        "norad_id": 35885,
        "name": "COSMOS 2251 DEB",
        "group": "cosmos-2251-debris",
        "lat": -55.1928919557816,
        "lon": -72.13453887031159,
        "alt_km": 774.5557825343622,
        "timestamp": "2025-12-03T06:58:43.638878+00:00",
        "meta_object_name": "COSMOS 2251 DEB",
        "meta_object_id": "1993-036ATY",
        "meta_epoch": "2025-12-01T06:48:48.094272",
        "meta_mean_motion": 14.37483132,
        "meta_eccentricity": 0.0022714,
        "meta_inclination": 74.0277,
        "meta_ra_of_asc_node": 315.8881,
        "meta_arg_of_pericenter": 39.4634,
        "meta_mean_anomaly": 320.8169,
        "meta_ephemeris_type": 0,
        "meta_classification_type": "U",
        "meta_norad_cat_id": 35885,
        "meta_element_set_no": 999,
        "meta_rev_at_epoch": 64851,
        "meta_bstar": 0.00036957,
        "meta_mean_motion_dot": 1.083e-05,
        "meta_mean_motion_ddot": 0,
        "tle_line1": "1 35885U 93036ATY 25335.28388998  .00001083  00000+0  36957-3 0  9997",
        "tle_line2": "2 35885  74.0277 315.8881 0022714  39.4634 320.8169 14.37483132648516"
      },
      "geometry": {
        "type": "Point",
        "coordinates": [
          -72.13453887031159,
          -55.1928919557816
        ]
      }
    },
    {
      "type": "Feature",
      "properties": {
        "norad_id": 35888,
        "name": "COSMOS 2251 DEB",
        "group": "cosmos-2251-debris",
        "lat": -74.02029958297665,
        "lon": -76.66178351323741,
        "alt_km": 722.9249676216004,
        "timestamp": "2025-12-03T06:58:43.638888+00:00",
        "meta_object_name": "COSMOS 2251 DEB",
        "meta_object_id": "1993-036AUB",
        "meta_epoch": "2025-12-02T19:52:14.823840",
        "meta_mean_motion": 14.58260804,
        "meta_eccentricity": 0.0048767,
        "meta_inclination": 74.0343,
        "meta_ra_of_asc_node": 15.5347,
        "meta_arg_of_pericenter": 150.5508,
        "meta_mean_anomaly": 209.8421,
        "meta_ephemeris_type": 0,
        "meta_classification_type": "U",
        "meta_norad_cat_id": 35888,
        "meta_element_set_no": 999,
        "meta_rev_at_epoch": 86129,
        "meta_bstar": 0.00052584,
        "meta_mean_motion_dot": 2.44e-05,
        "meta_mean_motion_ddot": 0,
        "tle_line1": "1 35888U 93036AUB 25336.82794935  .00002440  00000+0  52584-3 0  9995",
        "tle_line2": "2 35888  74.0343  15.5347 0048767 150.5508 209.8421 14.58260804861296"
      },
      "geometry": {
        "type": "Point",
        "coordinates": [
          -76.66178351323741,
          -74.02029958297665
        ]
      }
    },
    {
      "type": "Feature",
      "properties": {
        "norad_id": 35890,
        "name": "COSMOS 2251 DEB",
        "group": "cosmos-2251-debris",
        "lat": -16.796819609778254,
        "lon": -104.22492682976137,
        "alt_km": 679.5320231990181,
        "timestamp": "2025-12-03T06:58:43.638898+00:00",
        "meta_object_name": "COSMOS 2251 DEB",
        "meta_object_id": "1993-036AUD",
        "meta_epoch": "2025-12-02T03:02:51.744192",
        "meta_mean_motion": 14.57171025,
        "meta_eccentricity": 0.00534303,
        "meta_inclination": 73.9364,
        "meta_ra_of_asc_node": 262.9881,
        "meta_arg_of_pericenter": 29.2492,
        "meta_mean_anomaly": 331.1644,
        "meta_ephemeris_type": 0,
        "meta_classification_type": "U",
        "meta_norad_cat_id": 35890,
        "meta_element_set_no": 999,
        "meta_rev_at_epoch": 64996,
        "meta_bstar": 0.0024494131,
        "meta_mean_motion_dot": 0.0001126,
        "meta_mean_motion_ddot": 0,
        "tle_line1": "1 35890U 93036AUD 25336.12698778  .00011260  00000+0  24494-2 0  9997",
        "tle_line2": "2 35890  73.9364 262.9881 0053430  29.2492 331.1644 14.57171025649967"
      },
      "geometry": {
        "type": "Point",
        "coordinates": [
          -104.22492682976137,
          -16.796819609778254
        ]
      }
    },
    {
      "type": "Feature",
      "properties": {
        "norad_id": 35891,
        "name": "COSMOS 2251 DEB",
        "group": "cosmos-2251-debris",
        "lat": -17.481633690411602,
        "lon": -60.68261964467256,
        "alt_km": 452.591405343961,
        "timestamp": "2025-12-03T06:58:43.638908+00:00",
        "meta_object_name": "COSMOS 2251 DEB",
        "meta_object_id": "1993-036AUE",
        "meta_epoch": "2025-12-02T16:00:29.016864",
        "meta_mean_motion": 15.31997942,
        "meta_eccentricity": 0.00462104,
        "meta_inclination": 73.9876,
        "meta_ra_of_asc_node": 115.4632,
        "meta_arg_of_pericenter": 246.3701,
        "meta_mean_anomaly": 113.2648,
        "meta_ephemeris_type": 0,
        "meta_classification_type": "U",
        "meta_norad_cat_id": 35891,
        "meta_element_set_no": 999,
        "meta_rev_at_epoch": 67066,
        "meta_bstar": 0.0017470279,
        "meta_mean_motion_dot": 0.0005619,
        "meta_mean_motion_ddot": 0,
        "tle_line1": "1 35891U 93036AUE 25336.66700251  .00056190  00000+0  17470-2 0  9994",
        "tle_line2": "2 35891  73.9876 115.4632 0046210 246.3701 113.2648 15.31997942670666"
      },
      "geometry": {
        "type": "Point",
        "coordinates": [
          -60.68261964467256,
          -17.481633690411602
        ]
      }
    },
    {
      "type": "Feature",
      "properties": {
        "norad_id": 35895,
        "name": "COSMOS 2251 DEB",
        "group": "cosmos-2251-debris",
        "lat": -61.884728072709834,
        "lon": -28.311089263315175,
        "alt_km": 1039.0025084168283,
        "timestamp": "2025-12-03T06:58:43.638918+00:00",
        "meta_object_name": "COSMOS 2251 DEB",
        "meta_object_id": "1993-036AUJ",
        "meta_epoch": "2025-11-28T10:48:22.739616",
        "meta_mean_motion": 14.01419981,
        "meta_eccentricity": 0.01996382,
        "meta_inclination": 74.0486,
        "meta_ra_of_asc_node": 12.4453,
        "meta_arg_of_pericenter": 114.4344,
        "meta_mean_anomaly": 247.7763,
        "meta_ephemeris_type": 0,
        "meta_classification_type": "U",
        "meta_norad_cat_id": 35895,
        "meta_element_set_no": 999,
        "meta_rev_at_epoch": 58812,
        "meta_bstar": 0.0013219318,
        "meta_mean_motion_dot": 2.352e-05,
        "meta_mean_motion_ddot": 0,
        "tle_line1": "1 35895U 93036AUJ 25332.45026319  .00002352  00000+0  13219-2 0  9995",
        "tle_line2": "2 35895  74.0486  12.4453 0199638 114.4344 247.7763 14.01419981588125"
      },
      "geometry": {
        "type": "Point",
        "coordinates": [
          -28.311089263315175,
          -61.884728072709834
        ]
      }
    }
  ]
}